     2.11           N: GPS NAV DATA                         RINEX VERSION / TYPE
teqc  2019Feb25                         20221121 12:25:55UTCPGM / RUN BY / DATE
OSX ker:10.11.6|Core i5|gcc 4.3 -m64|OSX ker:10.10+|=+      COMMENT
    4.6566D-09  1.4901D-08 -5.9605D-08 -5.9605D-08          ION ALPHA
    7.7824D+04  4.9152D+04 -6.5536D+04 -3.2768D+05          ION BETA
    0.000000000000D+00 6.217248937901D-15   405504     1543 DELTA-UTC: A0,A1,T,W
                                                            END OF HEADER
29 09  8  5  8  0  0.0 4.588253796101D-05 3.524291969370D-12 0.000000000000D+00
    9.100000000000D+01 6.250000000000D-01 4.278749655669D-09-2.032547080201D+00
    1.918524503708D-07 3.272188361734D-03 1.056119799614D-05 5.153638633728D+03
    2.880000000000D+05 3.725290298462D-08-2.670612727454D+00 1.061707735062D-07
    9.603480303274D-01 1.724375000000D+02-1.291424090048D+00-7.787824394146D-09
    6.725280134912D-10 1.000000000000D+00 1.543000000000D+03 0.000000000000D+00
    2.800000000000D+00 0.000000000000D+00-8.847564458847D-09 9.100000000000D+01
    2.808180000000D+05 4.000000000000D+00
13 09  8  5  8  0  0.0 3.026523627341D-04 6.821210263297D-13 0.000000000000D+00
    1.600000000000D+01 1.071250000000D+02 3.600507118431D-09 1.203836310009D+00
    5.347654223442D-06 4.107547109015D-03 8.469447493553D-06 5.153674915314D+03
    2.880000000000D+05-8.568167686462D-08 5.041218290520D-01-8.195638656616D-08
    9.948755682865D-01 2.342187500000D+02 1.640453517851D+00-7.598887952756D-09
    6.750281176306D-11 1.000000000000D+00 1.543000000000D+03 0.000000000000D+00
    2.000000000000D+00 0.000000000000D+00-1.117587089539D-08 1.600000000000D+01
    2.808180000000D+05 4.000000000000D+00
10 09  8  5  8  0  0.0-2.055894583464D-05-6.821210263297D-13 0.000000000000D+00
    8.200000000000D+01-6.718750000000D+00 4.751269338011D-09 1.609279147587D+00
   -1.937150955200D-07 8.565951138735D-03 9.916722774506D-06 5.153646152496D+03
    2.880000000000D+05-1.527369022369D-07-5.784534822465D-01 1.806765794754D-07
    9.573757552973D-01 1.895000000000D+02 6.242024679211D-01-8.025691445120D-09
   -5.321650239522D-10 1.000000000000D+00 1.543000000000D+03 0.000000000000D+00
    2.800000000000D+00 0.000000000000D+00-2.793967723846D-09 8.200000000000D+01
    2.808180000000D+05 4.000000000000D+00
24 09  8  5  8  0  0.0 2.098944969475D-04 2.955857780762D-12 0.000000000000D+00
    4.000000000000D+01 2.281250000000D+00 5.247361430809D-09 2.898615728146D+00
    1.545995473862D-07 6.583371083252D-03 4.565343260765D-06 5.153662015915D+03
    2.880000000000D+05-2.793967723846D-08-1.599185603859D+00 1.639127731323D-07
    9.498627917465D-01 2.830312500000D+02-6.442874890457D-01-8.266415757968D-09
    1.278624688422D-10 1.000000000000D+00 1.543000000000D+03 0.000000000000D+00
    2.000000000000D+00 0.000000000000D+00-1.396983861923D-09 4.000000000000D+01
    2.808180000000D+05 4.000000000000D+00
25 09  8  5  8  0  0.0 5.396599881351D-04 1.637090463191D-11 0.000000000000D+00
    1.200000000000D+01 3.553125000000D+01 4.381611083118D-09-2.872712940756D+00
    1.849606633186D-06 1.125600887462D-02 1.240521669388D-06 5.153644844055D+03
    2.880000000000D+05 9.499490261078D-08 1.397999044340D+00 8.754432201386D-08
    9.701692957425D-01 3.627500000000D+02-1.210672453047D+00-8.056049852527D-09
   -3.178703834345D-11 1.000000000000D+00 1.543000000000D+03 0.000000000000D+00
    2.000000000000D+00 0.000000000000D+00-7.450580596924D-09 1.200000000000D+01
    2.808180000000D+05 4.000000000000D+00
 7 09  8  5  8  0  0.0 1.396378502250D-05-6.821210263297D-13 0.000000000000D+00
    4.300000000000D+01 1.309375000000D+01 4.487329772440D-09-1.063349497072D+00
    6.947666406631D-07 2.951366943307D-03 1.350417733192D-06 5.153656124115D+03
    2.880000000000D+05-5.029141902924D-08 1.492415303191D+00-8.195638656616D-08
    9.679620902949D-01 3.592812500000D+02 2.895370184407D+00-8.289273852957D-09
   -5.285934466102D-11 1.000000000000D+00 1.543000000000D+03 0.000000000000D+00
    2.000000000000D+00 0.000000000000D+00-1.071020960808D-08 4.300000000000D+01
    2.808180000000D+05 4.000000000000D+00
16 09  8  5  8  0  0.0 2.601929008961D-05-3.751665644813D-12 0.000000000000D+00
    1.010000000000D+02-1.289375000000D+02 3.993023468312D-09 2.786541615055D+00
   -6.621703505516D-06 5.312554771081D-03 7.715076208115D-06 5.153603525162D+03
    2.880000000000D+05 2.980232238770D-08 2.562345122817D+00 7.450580596924D-09
    9.693284484664D-01 2.367812500000D+02-2.989240432491D-01-7.837112161465D-09
   -2.771544017362D-10 1.000000000000D+00 1.543000000000D+03 0.000000000000D+00
    2.000000000000D+00 0.000000000000D+00-9.778887033463D-09 1.010000000000D+02
    2.808180000000D+05 4.000000000000D+00
16 09  8  5  7 59 44.0 2.601742744446D-05-3.751665644813D-12 0.000000000000D+00
    1.100000000000D+01-1.289375000000D+02 3.993023468312D-09 2.784207116716D+00
   -6.621703505516D-06 5.312555585988D-03 7.715076208115D-06 5.153603511810D+03
    2.879840000000D+05 2.980232238770D-08 2.562345257405D+00 7.450580596924D-09
    9.693284601697D-01 2.367812500000D+02-2.989232225521D-01-7.837112161465D-09
   -2.771544017362D-10 1.000000000000D+00 1.543000000000D+03 0.000000000000D+00
    2.000000000000D+00 0.000000000000D+00-9.778887033463D-09 1.100000000000D+01
    2.817360000000D+05 4.000000000000D+00
 8 09  8  5  8  0  0.0-2.152193337679D-04-1.818989403546D-12 0.000000000000D+00
    1.120000000000D+02-9.062500000000D-01 4.074455431709D-09-1.775196782746D+00
   -8.009374141693D-08 1.080701826140D-02 1.447275280952D-06 5.153629558563D+03
    2.880000000000D+05-4.842877388000D-08 1.554241615190D+00-1.322478055954D-07
    9.891706778549D-01 3.673125000000D+02 3.003512024903D+00-8.102480357972D-09
    2.714398779890D-11 1.000000000000D+00 1.543000000000D+03 0.000000000000D+00
    2.000000000000D+00 0.000000000000D+00-3.725290298462D-09 1.120000000000D+02
    2.817480000000D+05 4.000000000000D+00
21 09  8  5  8  0  0.0-1.331325620413D-06-2.160049916711D-12 0.000000000000D+00
    3.400000000000D+01 9.375000000000D-01 5.622734209449D-09-2.026515340224D+00
   -3.203749656677D-07 1.548546564300D-02 4.207715392113D-06 5.153756715775D+03
    2.880000000000D+05 1.769512891769D-07-1.632529417266D+00-1.527369022369D-07
    9.332435054751D-01 2.812187500000D+02-2.569478437182D+00-8.431065473433D-09
    3.553719455251D-10 1.000000000000D+00 1.543000000000D+03 0.000000000000D+00
    2.000000000000D+00 0.000000000000D+00-1.210719347000D-08 3.400000000000D+01
    2.820480000000D+05 4.000000000000D+00
15 09  8  5  8  0  0.0-3.126114606857D-04-2.046363078989D-12 0.000000000000D+00
    9.600000000000D+01 1.160625000000D+02 4.527331438670D-09 1.343181378290D+00
    6.068497896194D-06 1.530941110104D-03 8.482486009598D-06 5.153648324966D+03
    2.880000000000D+05 2.793967723846D-08 4.295557871227D-01-2.793967723846D-08
    9.563002764422D-01 2.083750000000D+02-4.918346894033D-01-8.043549331830D-09
   -1.500062483624D-11 1.000000000000D+00 1.543000000000D+03 0.000000000000D+00
    2.800000000000D+00 0.000000000000D+00-9.778887033463D-09 9.600000000000D+01
    2.833680000000D+05 4.000000000000D+00
 6 09  8  5  8  0  0.0 2.112463116646D-04 9.322320693173D-12 0.000000000000D+00
    3.300000000000D+01-8.656250000000D+00 4.831272670470D-09 2.695584237286D+00
   -5.438923835754D-07 5.933136446401D-03 1.027807593346D-05 5.153703495026D+03
    2.880000000000D+05 1.247972249985D-07-2.743995789456D+00-3.725290298462D-09
    9.342564753036D-01 1.658750000000D+02-1.293933319322D+00-7.971403469522D-09
    5.289506043444D-10 1.000000000000D+00 1.543000000000D+03 0.000000000000D+00
    2.000000000000D+00 0.000000000000D+00-4.656612873077D-09 3.300000000000D+01
    2.861580000000D+05 4.000000000000D+00
 3 09  8  5  8  0  0.0 4.295506514609D-04 5.115907697473D-12 0.000000000000D+00
    6.000000000000D+01-1.590625000000D+01 5.074139929724D-09 3.205917588707D-01
   -7.841736078262D-07 1.218077400699D-02 1.029111444950D-05 5.153647678375D+03
    2.880000000000D+05-1.080334186554D-07-2.812129534197D+00 1.881271600723D-07
    9.268421607077D-01 1.663125000000D+02 9.211469226096D-01-8.327846888250D-09
    4.593048461762D-10 1.000000000000D+00 1.543000000000D+03 0.000000000000D+00
    2.000000000000D+00 0.000000000000D+00-4.190951585770D-09 6.000000000000D+01
    2.874480000000D+05 4.000000000000D+00
18 09  8  5  8  0  0.0 2.671033143997D-06 3.069544618484D-12 0.000000000000D+00
    6.700000000000D+01-1.043750000000D+01 4.916990526677D-09 2.986655552798D+00
   -6.128102540970D-07 1.079491747078D-02 1.013092696667D-05 5.153617528915D+03
    2.880000000000D+05-6.332993507385D-08-5.740565532225D-01-2.011656761169D-07
    9.414074997554D-01 1.729375000000D+02-2.396610251477D+00-7.907472235101D-09
   -6.000249934494D-10 1.000000000000D+00 1.543000000000D+03 0.000000000000D+00
    2.000000000000D+00 0.000000000000D+00-1.071020960808D-08 6.700000000000D+01
    2.879580000000D+05 4.000000000000D+00
24 09  8  5 10  0  0.0 2.099159173667D-04 2.955857780762D-12 0.000000000000D+00
    5.200000000000D+01 3.125000000000D-01 5.164143678741D-09-2.334355547324D+00
    2.216547727585D-07 6.582948728465D-03 4.651024937630D-06 5.153662843704D+03
    2.952000000000D+05-1.154839992523D-07-1.599245115367D+00 1.024454832077D-07
    9.498638479734D-01 2.855937500000D+02-6.443087364679D-01-8.262129865158D-09
    1.550064566411D-10 1.000000000000D+00 1.543000000000D+03 0.000000000000D+00
    2.000000000000D+00 0.000000000000D+00-1.396983861923D-09 5.200000000000D+01
    2.880180000000D+05 4.000000000000D+00
